#dP2022 11  5 18  0  0.00000000      96 __u+U ITR00 EXT  IAC
## 2234 583200.00000000   900.00000000 59888 0.7500000000000
+  116   C06C07C08C09C10C11C12C13C14C16C19C20C21C22C23C24C25
+        C26C27C28C29C30C32C33C34C35C36C37C38C39C40C41C42C43
+        C44C45C46E01E02E03E04E05E07E08E09E10E11E12E13E14E15
+        E18E19E21E24E25E26E27E30E31E33E34E36G01G02G03G04G05
+        G06G07G08G09G10G11G12G13G14G15G16G17G18G19G20G21G22
+        G23G24G25G26G27G29G30G31G32J03J04R01R02R03R04R05R07
+        R08R09R11R12R13R14R15R17R18R19R20R21R22R24  0  0  0
++        10  9  8 10  9  8  8  9 10  9  9  9  9  9  9 10  9
++         8  7  7  8  8  7  8 10  9  8  7  9  9 11  9  9  7
++         8  8  9  8  8  7  8  7  7  7  9  7  7  8  8  7  7
++         9  8  8  7  8  8  7  8  8  8  6  7  8  7  7  7  7
++         8  6  8  8  8  7  7  8  8  8  7  8  8  7  8  9  7
++         8  9  7  6  6  6  7  7  7  8  9  9  9  8  8  9  9
++         6  9  8  7 10  7  9  8  8  8 11  8  8  9  0  0  0
%c M  cc GPS ccc cccc cccc cccc cccc ccccc ccccc ccccc ccccc
%c cc cc ccc ccc cccc cccc cccc cccc ccccc ccccc ccccc ccccc
%f  0.0000000  0.000000000  0.00000000000  0.000000000000000
%f  0.0000000  0.000000000  0.00000000000  0.000000000000000
%i    0    0    0    0      0      0      0      0         0
%i    0    0    0    0      0      0      0      0         0
/* IAC                                ULTRA-RAPID PREDICTION
/* S/V CLOCKS ARE ALIGNED TO GNSS TIME                      
/* G:C1WC2W R:C1PC2P E:C1XC5X C:C2IC6I J:C1CC2S             
/* PCV:IGS14_2233 OL/AL:FES2004  NONE     YN ORB:CoN CLK:CoN
*  2022 11 05 19  0  0.00000000
PC06  -4771.596283  24693.244069 -33823.384168      7.927475
PC07 -17554.785934  34521.002084  16544.623637    255.675276
PC08  -4066.119912  39045.425475  15642.872944    507.251858
PC09   5656.729483  27691.158281 -30740.290301   -815.011617
PC10  -9887.290163  34320.041581  22337.884648     72.948707
PC11  14382.435088 -10097.444442 -21613.909282   -309.564231
PC12  26146.745740   2025.496095  -9525.030952    288.994679
PC13   1941.679681  41726.231937   6953.744617    125.675434
PC14  18596.406738 -20561.959260   3418.736965    627.963948
PC16 -10013.775816  21860.611320 -34458.251765    120.779542
PC19 -11576.267472  22234.812820 -12233.743890   -918.302647
PC20 -22058.053961  16531.623077   4279.816758    845.790550
PC21  20020.455177   -408.547195 -19435.177780   -757.938125
PC22   6109.861558  15361.077662 -22488.506650   -810.266046
PC23  -9881.047928 -25477.882846  -5628.056917   -880.717167
PC24  14212.654689  -9319.884185  22118.897710   -847.686031
PC25   1694.949886 -25584.763171  10977.448955     20.268665
PC26  17093.930592   9539.050182  19889.587957    -31.715176
PC27 -26770.308989  -7805.599799   1184.611337     46.874384
PC28 -17160.817006 -16312.715384 -14756.762431     32.576151
PC29  -3149.011544  15656.786448  22882.116842     36.519578
PC30 -21833.162694   5722.890933  16419.103091      0.845961
PC32 -19965.855149    439.939492  19496.765583   -729.841031
PC33  11527.027776 -22329.463316  12141.006902   -918.311783
PC34  20992.206096  -6523.446681 -17187.922978     32.727590
PC35  16325.357755  16139.788643  15841.399236     74.799660
PC36  -2701.865024  25289.475758 -11474.619804   -863.903439
PC37 -16724.568883 -11274.910690 -19259.780575   -742.017197
PC38  -9045.605574  35176.236662  21594.077741     36.083217
PC39 -14175.879218  20160.578095 -34224.699275     -0.794072
PC40 -25459.462665  29858.081688  15161.406293     -7.488893
PC41  -5666.034017 -15767.542934  22359.286717   -245.507986
PC42  22340.666479 -15836.641013  -5374.687329   -608.071233
PC43   4084.671723 -15529.114648 -22828.154023     23.414056
PC44  26998.354899   6930.046680  -1008.997229    104.460863
PC45  10060.401616  25344.508572   6002.193630    -18.726302
PC46 -13336.931049  11292.341426 -21765.303237    -11.041636
PE01  -3484.505601 -24620.711856 -16044.926785   -560.325392
PE02   3629.199802  24518.299662  16199.490136      0.800601
PE03  10640.630793  14605.859813 -23455.496962   -617.021636
PE04 -26547.810853  -3361.292783  12654.898211  -1152.182554
PE05 -11901.176019  17510.461865 -20692.878079   -127.534472
PE07  27149.432265 -10188.943150   5950.762861   -719.068090
PE08  26545.795343   3218.565083 -12708.955832   -627.434942
PE09 -27206.147036  10110.666409  -5793.224234   -718.689133
PE10 -21958.304295  -5827.627029  18963.004854   -488.734995
PE11 -16859.387877   4506.193796  23903.085346   1463.231757
PE12 -23193.485434 -14414.176797  11431.606065   -261.105856
PE13  17354.348273  -3640.337481 -23696.321246    430.650552
PE14   9824.049260  14468.138062  18172.354255     48.241449
PE15  23182.028624  14605.013532 -11199.751639    709.378856
PE18   -355.321265 -20022.816741 -23988.401558   -777.570886
PE19  -7652.952167 -15479.754505  24039.482327  -4074.764395
PE21   9277.808626 -28103.710084    283.383112   -492.916100
PE24 -18019.525466  14808.851287 -18249.877089   -931.038068
PE25  -9460.262347  28047.532727   -563.067991   -591.964316
PE26    762.685272 -20147.467155 -21661.033587  -1810.818156
PE27  17761.304088 -15791.564754  17643.646330   -432.516367
PE30  15422.581308   6637.269591  24373.866849   -974.562680
PE31 -15703.955763  -5666.797580 -24431.046070   -507.447215
PE33 -15297.471398 -24104.870502  -7806.765340   -455.354178
PE34  15468.082162  24062.762398   7641.373385    -13.106349
PE36  -1413.761434  19565.465315  22172.534710   -456.483525
PG01 -19650.512802 -10577.981112  14350.588543    256.274111
PG02  20290.584574   7205.456558 -14816.263625   -639.203060
PG03 -15089.828323  -1824.438723  21647.404069   -370.840549
PG04 -25989.653891  -1362.983108   5577.844244    -91.564549
PG05   9511.675472  14745.016833 -20076.144818   -103.160079
PG06   2238.332617  20801.889612  16379.437332    510.752747
PG07 -15147.984076   4774.396770 -20931.783229    290.913759
PG08 -20910.720140  -7295.047498 -14967.049824    -92.365588
PG09 -24816.594817   7803.178837  -5556.754364   -273.024025
PG10  11267.630740 -23754.042521  -2107.101809    -10.629186
PG11  11088.080957  23409.128217   5970.473052    -35.303729
PG12  14829.894461   3429.421260  21489.113779   -300.749242
PG13  13572.893484  13083.610539 -18958.129374    419.261631
PG14 -13418.756652  22478.085156  -4097.041931    -86.841425
PG15  21681.291663   5620.737660 -14933.864847    -14.895804
PG16  -3869.073006 -19286.425673 -17904.308619   -526.844202
PG17 -15954.037473  12877.937832  17365.259115    675.308706
PG18  13502.312331  -6768.734115 -21858.460230    -11.148068
PG19  -4459.434000  14638.262988  21444.785186    233.417698
PG20   2169.586771  24378.062295 -10582.216291    472.528752
PG21 -20991.906986 -15560.353017   7231.376971    156.666025
PG22   1004.024323 -15427.495745  22011.914296    359.029817
PG23  15664.574671 -17426.363585 -12380.338523     -1.130282
PG24  21324.332070  12479.995047   9953.374394     71.270246
PG25  17146.843450  -8892.097211  17812.122772    389.677922
PG26   2077.978035 -24989.796853  -8322.991150    234.883410
PG27 -10059.299361 -13194.414370 -21044.200860    184.399797
PG29  25925.363074  -4287.481260  -4197.651434   -565.053370
PG30  -6379.193535  16065.297485 -20012.122109   -536.935510
PG31  -2681.775665 -21487.815628  14906.681239   -199.216080
PG32  12264.274445 -14790.360912  18401.972425   -286.497488
PJ03 -27238.399994  22229.794846  28388.818787     -4.096874
PJ04 -33070.226797  26310.435686   6009.625795    112.584279
PR01 -21851.326323   9122.682786   9472.259963     17.396186
PR02 -17389.659087  16080.919212  -9526.665018    -23.219707
PR03  -2363.714781  13531.442535 -21470.535304     66.767419
PR04  13511.639598   3323.639195 -21353.144544    163.836394
PR05  22081.007805  -8485.263508  -9500.624289    102.428044
PR07   1483.894864 -13156.776876  21822.655316     43.799505
PR08 -13735.093121  -3261.867225  21303.699601    -67.940405
PR09   5429.396070 -20880.924010  13686.977627     85.969232
PR11  -9227.529745 -16042.587577 -17549.790462     22.065850
PR12 -10716.181888   3996.859384 -22775.425540     22.610813
PR13  -6071.861382  19709.180908 -15027.389765    -28.549387
PR14   2809.669066  25154.157412   3119.837930     24.161672
PR15   9433.653687  15195.602171  18206.915586     92.835060
PR17   9958.888251  14729.350786  18324.817343    575.485582
PR18  21218.919227  13553.256045   3969.497589     50.570535
PR19  21784.216722   6760.554095 -11427.249480   -209.891180
PR20   8382.717078  -6947.258784 -23052.300824    -81.602927
PR21 -11305.175653 -14943.379100 -17285.026614   -347.338561
PR22 -20991.641310 -14159.124754  -3096.891790     15.434445
PR24  -7789.565253   8001.177111  22953.830117    124.675050
EOF
